[{"OBJECT_NAME":"ONEWEB-0435","OBJECT_ID":"2022-012L","EPOCH":"2026-03-09T22:20:25.757952","MEAN_MOTION":13.1037626,"ECCENTRICITY":0.00018269,"INCLINATION":87.8772,"RA_OF_ASC_NODE":56.0428,"ARG_OF_PERICENTER":98.6962,"MEAN_ANOMALY":261.4373,"EPHEMERIS_TYPE":0,"CLASSIFICATION_TYPE":"U","NORAD_CAT_ID":51632,"ELEMENT_SET_NO":999,"REV_AT_EPOCH":19631,"BSTAR":4.7716794e-5,"MEAN_MOTION_DOT":2.9e-7,"MEAN_MOTION_DDOT":0},{"OBJECT_NAME":"COSMOS 1275 DEB","OBJECT_ID":"1981-053NW","EPOCH":"2026-02-22T18:50:45.887712","MEAN_MOTION":13.46707162,"ECCENTRICITY":0.02388501,"INCLINATION":83.1403,"RA_OF_ASC_NODE":255.1438,"ARG_OF_PERICENTER":335.1962,"MEAN_ANOMALY":23.7843,"EPHEMERIS_TYPE":0,"CLASSIFICATION_TYPE":"U","NORAD_CAT_ID":39960,"ELEMENT_SET_NO":999,"REV_AT_EPOCH":55677,"BSTAR":0.00066964867,"MEAN_MOTION_DOT":4.93e-6,"MEAN_MOTION_DDOT":0}]
